[{"OBJECT_NAME":"STARLINK-5462","OBJECT_ID":"2023-021AY","EPOCH":"2026-03-09T22:00:01.999584","MEAN_MOTION":14.98350999,"ECCENTRICITY":0.00033559,"INCLINATION":70.0011,"RA_OF_ASC_NODE":163.7425,"ARG_OF_PERICENTER":270.6716,"MEAN_ANOMALY":32.0399,"EPHEMERIS_TYPE":0,"CLASSIFICATION_TYPE":"U","NORAD_CAT_ID":55674,"ELEMENT_SET_NO":999,"REV_AT_EPOCH":575,"BSTAR":-0.00372699,"MEAN_MOTION_DOT":-0.00044308,"MEAN_MOTION_DDOT":0},{"OBJECT_NAME":"BLACK ARROW R\/B","OBJECT_ID":"1971-093B","EPOCH":"2026-03-09T22:36:05.554944","MEAN_MOTION":14.00366378,"ECCENTRICITY":0.05041089,"INCLINATION":82.0373,"RA_OF_ASC_NODE":52.5877,"ARG_OF_PERICENTER":268.267,"MEAN_ANOMALY":86.0721,"EPHEMERIS_TYPE":0,"CLASSIFICATION_TYPE":"U","NORAD_CAT_ID":5581,"ELEMENT_SET_NO":999,"REV_AT_EPOCH":73271,"BSTAR":0.00039679437,"MEAN_MOTION_DOT":1.821e-5,"MEAN_MOTION_DDOT":0}]
